STARLINK-35793          
1 67179U 25303S   26015.50002314  .00036137  00000+0  86851-3 0  9992
2 67179  42.9995 254.4333 0001211 243.4184  59.3860 15.40691023  5608
STARLINK-35876          
1 67180U 25303T   26015.50002314  .00053722  00000+0  12860-2 0  9991
2 67180  42.9992 254.3729 0002475 275.7380  51.9203 15.40657222  5651
STARLINK-35766          
1 67181U 25303U   26015.50002314  .00043186  00000+0  10363-2 0  9991
2 67181  42.9990 254.3429 0001433 263.3126  76.8966 15.40669036  5604
STARLINK-35782          
1 67182U 25303V   26015.50002314  .00054058  00000+0  12942-2 0  9997
2 67182  42.9985 254.3130 0001774 264.1588  88.5109 15.40651631  5608
STARLINK-35719          
1 67183U 25303W   26015.50002314 -.02405187  00000+0 -57951-1 0  9993
2 67183  42.9987 254.2622 0001816 270.6000 103.3317 15.44005669  5609
STARLINK-35910          
1 67184U 25303X   26015.50002314 -.02115967  00000+0 -54267-1 0  9995
2 67184  42.9997 254.2856 0001565 243.7011 120.4478 15.42306055  5603
STARLINK-35859          
1 67185U 25303Y   26015.50002314 -.01990976  00000+0 -43577-1 0  9998
2 67185  42.9989 254.2228 0001757 252.6014 137.3532 15.46688280  5608
STARLINK-35857          
1 67186U 25303Z   26015.50002314 -.02001805  00000+0 -46424-1 0  9998
2 67186  42.9990 254.2413 0001922 251.5302 130.8517 15.45040102  5604
STARLINK-35880          
1 67187U 25303AA  26015.50002314 -.02056908  00000+0 -42994-1 0  9991
2 67187  42.9986 254.2090 0001800 268.1273 126.7440 15.48111747  5603
STARLINK-35675          
1 67188U 25303AB  26015.50002314 -.01979766  00000+0 -37349-1 0  9995
2 67188  42.9980 254.1961 0001549 276.0310 124.0372 15.50860995  5608
STARLINK-35889          
1 67189U 25303AC  26015.50002314 -.02055090  00000+0 -40878-1 0  9993
2 67189  42.9984 254.2006 0001718 273.3403 124.9104 15.49507155  5601
STARLINK-35888          
1 67190U 25303AD  26015.50002314  .00006278  00000+0  11281-3 0  9993
2 67190  42.9980 254.1884 0001559 262.7966 140.0834 15.50562761  5606
