CCSDS_OMM_VERS = 2.0
CREATION_DATE  = 
ORIGINATOR     = 

OBJECT_NAME    = STARLINK-35793
OBJECT_ID      = 2025-303S
CENTER_NAME    = EARTH
REF_FRAME      = TEME
TIME_SYSTEM    = UTC
MEAN_ELEMENT_THEORY = SGP/SGP4

EPOCH          = 2026-01-15T12:00:01.999296
MEAN_MOTION    = 15.40691023
ECCENTRICITY   = .0001211
INCLINATION    = 42.9995
RA_OF_ASC_NODE = 254.4333
ARG_OF_PERICENTER = 243.4184
MEAN_ANOMALY   = 59.3860

EPHEMERIS_TYPE = 0
CLASSIFICATION_TYPE = U
NORAD_CAT_ID   = 67179
ELEMENT_SET_NO = 999
REV_AT_EPOCH   = 560
BSTAR          = .86851E-3
MEAN_MOTION_DOT = .36137E-3
MEAN_MOTION_DDOT = 0

CCSDS_OMM_VERS = 2.0
CREATION_DATE  = 
ORIGINATOR     = 

OBJECT_NAME    = STARLINK-35876
OBJECT_ID      = 2025-303T
CENTER_NAME    = EARTH
REF_FRAME      = TEME
TIME_SYSTEM    = UTC
MEAN_ELEMENT_THEORY = SGP/SGP4

EPOCH          = 2026-01-15T12:00:01.999296
MEAN_MOTION    = 15.40657222
ECCENTRICITY   = .0002475
INCLINATION    = 42.9992
RA_OF_ASC_NODE = 254.3729
ARG_OF_PERICENTER = 275.7380
MEAN_ANOMALY   = 51.9203

EPHEMERIS_TYPE = 0
CLASSIFICATION_TYPE = U
NORAD_CAT_ID   = 67180
ELEMENT_SET_NO = 999
REV_AT_EPOCH   = 565
BSTAR          = .1286E-2
MEAN_MOTION_DOT = .53722E-3
MEAN_MOTION_DDOT = 0

CCSDS_OMM_VERS = 2.0
CREATION_DATE  = 
ORIGINATOR     = 

OBJECT_NAME    = STARLINK-35766
OBJECT_ID      = 2025-303U
CENTER_NAME    = EARTH
REF_FRAME      = TEME
TIME_SYSTEM    = UTC
MEAN_ELEMENT_THEORY = SGP/SGP4

EPOCH          = 2026-01-15T12:00:01.999296
MEAN_MOTION    = 15.40669036
ECCENTRICITY   = .0001433
INCLINATION    = 42.9990
RA_OF_ASC_NODE = 254.3429
ARG_OF_PERICENTER = 263.3126
MEAN_ANOMALY   = 76.8966

EPHEMERIS_TYPE = 0
CLASSIFICATION_TYPE = U
NORAD_CAT_ID   = 67181
ELEMENT_SET_NO = 999
REV_AT_EPOCH   = 560
BSTAR          = .10363E-2
MEAN_MOTION_DOT = .43186E-3
MEAN_MOTION_DDOT = 0

CCSDS_OMM_VERS = 2.0
CREATION_DATE  = 
ORIGINATOR     = 

OBJECT_NAME    = STARLINK-35782
OBJECT_ID      = 2025-303V
CENTER_NAME    = EARTH
REF_FRAME      = TEME
TIME_SYSTEM    = UTC
MEAN_ELEMENT_THEORY = SGP/SGP4

EPOCH          = 2026-01-15T12:00:01.999296
MEAN_MOTION    = 15.40651631
ECCENTRICITY   = .0001774
INCLINATION    = 42.9985
RA_OF_ASC_NODE = 254.3130
ARG_OF_PERICENTER = 264.1588
MEAN_ANOMALY   = 88.5109

EPHEMERIS_TYPE = 0
CLASSIFICATION_TYPE = U
NORAD_CAT_ID   = 67182
ELEMENT_SET_NO = 999
REV_AT_EPOCH   = 560
BSTAR          = .12942E-2
MEAN_MOTION_DOT = .54058E-3
MEAN_MOTION_DDOT = 0

CCSDS_OMM_VERS = 2.0
CREATION_DATE  = 
ORIGINATOR     = 

OBJECT_NAME    = STARLINK-35719
OBJECT_ID      = 2025-303W
CENTER_NAME    = EARTH
REF_FRAME      = TEME
TIME_SYSTEM    = UTC
MEAN_ELEMENT_THEORY = SGP/SGP4

EPOCH          = 2026-01-15T12:00:01.999296
MEAN_MOTION    = 15.44005669
ECCENTRICITY   = .0001816
INCLINATION    = 42.9987
RA_OF_ASC_NODE = 254.2622
ARG_OF_PERICENTER = 270.6000
MEAN_ANOMALY   = 103.3317

EPHEMERIS_TYPE = 0
CLASSIFICATION_TYPE = U
NORAD_CAT_ID   = 67183
ELEMENT_SET_NO = 999
REV_AT_EPOCH   = 560
BSTAR          = -.57951E-1
MEAN_MOTION_DOT = -.2405187E-1
MEAN_MOTION_DDOT = 0

CCSDS_OMM_VERS = 2.0
CREATION_DATE  = 
ORIGINATOR     = 

OBJECT_NAME    = STARLINK-35910
OBJECT_ID      = 2025-303X
CENTER_NAME    = EARTH
REF_FRAME      = TEME
TIME_SYSTEM    = UTC
MEAN_ELEMENT_THEORY = SGP/SGP4

EPOCH          = 2026-01-15T12:00:01.999296
MEAN_MOTION    = 15.42306055
ECCENTRICITY   = .0001565
INCLINATION    = 42.9997
RA_OF_ASC_NODE = 254.2856
ARG_OF_PERICENTER = 243.7011
MEAN_ANOMALY   = 120.4478

EPHEMERIS_TYPE = 0
CLASSIFICATION_TYPE = U
NORAD_CAT_ID   = 67184
ELEMENT_SET_NO = 999
REV_AT_EPOCH   = 560
BSTAR          = -.54267E-1
MEAN_MOTION_DOT = -.2115967E-1
MEAN_MOTION_DDOT = 0

CCSDS_OMM_VERS = 2.0
CREATION_DATE  = 
ORIGINATOR     = 

OBJECT_NAME    = STARLINK-35859
OBJECT_ID      = 2025-303Y
CENTER_NAME    = EARTH
REF_FRAME      = TEME
TIME_SYSTEM    = UTC
MEAN_ELEMENT_THEORY = SGP/SGP4

EPOCH          = 2026-01-15T12:00:01.999296
MEAN_MOTION    = 15.46688280
ECCENTRICITY   = .0001757
INCLINATION    = 42.9989
RA_OF_ASC_NODE = 254.2228
ARG_OF_PERICENTER = 252.6014
MEAN_ANOMALY   = 137.3532

EPHEMERIS_TYPE = 0
CLASSIFICATION_TYPE = U
NORAD_CAT_ID   = 67185
ELEMENT_SET_NO = 999
REV_AT_EPOCH   = 560
BSTAR          = -.43577E-1
MEAN_MOTION_DOT = -.1990976E-1
MEAN_MOTION_DDOT = 0

CCSDS_OMM_VERS = 2.0
CREATION_DATE  = 
ORIGINATOR     = 

OBJECT_NAME    = STARLINK-35857
OBJECT_ID      = 2025-303Z
CENTER_NAME    = EARTH
REF_FRAME      = TEME
TIME_SYSTEM    = UTC
MEAN_ELEMENT_THEORY = SGP/SGP4

EPOCH          = 2026-01-15T12:00:01.999296
MEAN_MOTION    = 15.45040102
ECCENTRICITY   = .0001922
INCLINATION    = 42.9990
RA_OF_ASC_NODE = 254.2413
ARG_OF_PERICENTER = 251.5302
MEAN_ANOMALY   = 130.8517

EPHEMERIS_TYPE = 0
CLASSIFICATION_TYPE = U
NORAD_CAT_ID   = 67186
ELEMENT_SET_NO = 999
REV_AT_EPOCH   = 560
BSTAR          = -.46424E-1
MEAN_MOTION_DOT = -.2001805E-1
MEAN_MOTION_DDOT = 0

CCSDS_OMM_VERS = 2.0
CREATION_DATE  = 
ORIGINATOR     = 

OBJECT_NAME    = STARLINK-35880
OBJECT_ID      = 2025-303AA
CENTER_NAME    = EARTH
REF_FRAME      = TEME
TIME_SYSTEM    = UTC
MEAN_ELEMENT_THEORY = SGP/SGP4

EPOCH          = 2026-01-15T12:00:01.999296
MEAN_MOTION    = 15.48111747
ECCENTRICITY   = .00018
INCLINATION    = 42.9986
RA_OF_ASC_NODE = 254.2090
ARG_OF_PERICENTER = 268.1273
MEAN_ANOMALY   = 126.7440

EPHEMERIS_TYPE = 0
CLASSIFICATION_TYPE = U
NORAD_CAT_ID   = 67187
ELEMENT_SET_NO = 999
REV_AT_EPOCH   = 560
BSTAR          = -.42994E-1
MEAN_MOTION_DOT = -.2056908E-1
MEAN_MOTION_DDOT = 0

CCSDS_OMM_VERS = 2.0
CREATION_DATE  = 
ORIGINATOR     = 

OBJECT_NAME    = STARLINK-35675
OBJECT_ID      = 2025-303AB
CENTER_NAME    = EARTH
REF_FRAME      = TEME
TIME_SYSTEM    = UTC
MEAN_ELEMENT_THEORY = SGP/SGP4

EPOCH          = 2026-01-15T12:00:01.999296
MEAN_MOTION    = 15.50860995
ECCENTRICITY   = .0001549
INCLINATION    = 42.9980
RA_OF_ASC_NODE = 254.1961
ARG_OF_PERICENTER = 276.0310
MEAN_ANOMALY   = 124.0372

EPHEMERIS_TYPE = 0
CLASSIFICATION_TYPE = U
NORAD_CAT_ID   = 67188
ELEMENT_SET_NO = 999
REV_AT_EPOCH   = 560
BSTAR          = -.37349E-1
MEAN_MOTION_DOT = -.1979766E-1
MEAN_MOTION_DDOT = 0

CCSDS_OMM_VERS = 2.0
CREATION_DATE  = 
ORIGINATOR     = 

OBJECT_NAME    = STARLINK-35889
OBJECT_ID      = 2025-303AC
CENTER_NAME    = EARTH
REF_FRAME      = TEME
TIME_SYSTEM    = UTC
MEAN_ELEMENT_THEORY = SGP/SGP4

EPOCH          = 2026-01-15T12:00:01.999296
MEAN_MOTION    = 15.49507155
ECCENTRICITY   = .0001718
INCLINATION    = 42.9984
RA_OF_ASC_NODE = 254.2006
ARG_OF_PERICENTER = 273.3403
MEAN_ANOMALY   = 124.9104

EPHEMERIS_TYPE = 0
CLASSIFICATION_TYPE = U
NORAD_CAT_ID   = 67189
ELEMENT_SET_NO = 999
REV_AT_EPOCH   = 560
BSTAR          = -.40878E-1
MEAN_MOTION_DOT = -.205509E-1
MEAN_MOTION_DDOT = 0

CCSDS_OMM_VERS = 2.0
CREATION_DATE  = 
ORIGINATOR     = 

OBJECT_NAME    = STARLINK-35888
OBJECT_ID      = 2025-303AD
CENTER_NAME    = EARTH
REF_FRAME      = TEME
TIME_SYSTEM    = UTC
MEAN_ELEMENT_THEORY = SGP/SGP4

EPOCH          = 2026-01-15T12:00:01.999296
MEAN_MOTION    = 15.50562761
ECCENTRICITY   = .0001559
INCLINATION    = 42.9980
RA_OF_ASC_NODE = 254.1884
ARG_OF_PERICENTER = 262.7966
MEAN_ANOMALY   = 140.0834

EPHEMERIS_TYPE = 0
CLASSIFICATION_TYPE = U
NORAD_CAT_ID   = 67190
ELEMENT_SET_NO = 999
REV_AT_EPOCH   = 560
BSTAR          = .11281E-3
MEAN_MOTION_DOT = .6278E-4
MEAN_MOTION_DDOT = 0

